{
  "norad_id": 48115,
  "name": "STARLINK-2452",
  "history": [
    {
      "epoch": "2026-03-28T22:21:59.659200Z",
      "apogee_km": 476.1245202623859,
      "perigee_km": 474.263703798847,
      "latitude_deg": 9.280388006664354e-06,
      "longitude_deg": -96.28457149718217,
      "height_km": 476.16301065431486,
      "semi_major_axis_km": 6853.331112030616,
      "eccentricity": 0.00013576,
      "inclination_deg": 53.1618,
      "raan_deg": 65.5593,
      "arg_perigee_deg": 94.3608,
      "mean_anomaly_deg": 265.7548,
      "mean_motion_rev_day": 15.30207019
    },
    {
      "epoch": "2026-03-29T04:38:12.276096Z",
      "apogee_km": 476.1361299836826,
      "perigee_km": 474.2034974622129,
      "latitude_deg": 2.2983650607422713e-05,
      "longitude_deg": 168.19236159569817,
      "height_km": 476.20543215726565,
      "semi_major_axis_km": 6853.3068137229475,
      "eccentricity": 0.000141,
      "inclination_deg": 53.1617,
      "raan_deg": 64.3463,
      "arg_perigee_deg": 98.1826,
      "mean_anomaly_deg": 261.9335,
      "mean_motion_rev_day": 15.30215157
    },
    {
      "epoch": "2026-03-30T04:09:01.226304Z",
      "apogee_km": 476.1254350650488,
      "perigee_km": 474.36685694978314,
      "latitude_deg": -6.136573882773518e-05,
      "longitude_deg": 169.97217103967503,
      "height_km": 476.15209477656936,
      "semi_major_axis_km": 6853.383146007415,
      "eccentricity": 0.0001283,
      "inclination_deg": 53.1622,
      "raan_deg": 59.7958,
      "arg_perigee_deg": 90.4985,
      "mean_anomaly_deg": 269.6162,
      "mean_motion_rev_day": 15.30189592
    },
    {
      "epoch": "2026-03-30T05:43:04.374048Z",
      "apogee_km": 476.0360439999595,
      "perigee_km": 474.4460602918616,
      "latitude_deg": 7.159303125034403e-06,
      "longitude_deg": 146.0914299421027,
      "height_km": 476.0557562339754,
      "semi_major_axis_km": 6853.37805214591,
      "eccentricity": 0.000116,
      "inclination_deg": 53.1623,
      "raan_deg": 59.4925,
      "arg_perigee_deg": 83.9511,
      "mean_anomaly_deg": 276.1622,
      "mean_motion_rev_day": 15.30191298
    },
    {
      "epoch": "2026-03-31T06:47:55.221792Z",
      "apogee_km": 475.96767163522054,
      "perigee_km": 474.3626282717014,
      "latitude_deg": -4.70812085028786e-05,
      "longitude_deg": 123.99559372452636,
      "height_km": 475.95095368319676,
      "semi_major_axis_km": 6853.302149953461,
      "eccentricity": 0.0001171,
      "inclination_deg": 53.1622,
      "raan_deg": 54.6386,
      "arg_perigee_deg": 81.929,
      "mean_anomaly_deg": 278.1843,
      "mean_motion_rev_day": 15.30216719
    },
    {
      "epoch": "2026-04-01T14:09:00.266688Z",
      "apogee_km": 476.0110925206418,
      "perigee_km": 474.4882700000662,
      "latitude_deg": -4.38885378494777e-05,
      "longitude_deg": 6.369621133036738,
      "height_km": 476.32675220471214,
      "semi_major_axis_km": 6853.386681260354,
      "eccentricity": 0.0001111,
      "inclination_deg": 53.1617,
      "raan_deg": 48.5712,
      "arg_perigee_deg": 103.5626,
      "mean_anomaly_deg": 256.5498,
      "mean_motion_rev_day": 15.30188408
    },
    {
      "epoch": "2026-04-02T13:39:48.092832Z",
      "apogee_km": 476.4088347997549,
      "perigee_km": 474.0140007286518,
      "latitude_deg": 3.973852109006062e-05,
      "longitude_deg": 8.151952434031479,
      "height_km": 476.0297354903868,
      "semi_major_axis_km": 6853.348417764203,
      "eccentricity": 0.00017472,
      "inclination_deg": 53.1625,
      "raan_deg": 44.0184,
      "arg_perigee_deg": 86.2,
      "mean_anomaly_deg": 273.9201,
      "mean_motion_rev_day": 15.30201223
    },
    {
      "epoch": "2026-04-02T21:30:03.996576Z",
      "apogee_km": 476.2140416209995,
      "perigee_km": 474.23314627492437,
      "latitude_deg": -6.013873394721366e-06,
      "longitude_deg": -111.25193201983933,
      "height_km": 476.2463382728454,
      "semi_major_axis_km": 6853.360593947961,
      "eccentricity": 0.00014452,
      "inclination_deg": 53.1624,
      "raan_deg": 42.5027,
      "arg_perigee_deg": 97.2294,
      "mean_anomaly_deg": 262.8871,
      "mean_motion_rev_day": 15.30197145
    },
    {
      "epoch": "2026-04-03T13:10:35.840352Z",
      "apogee_km": 476.16400490577144,
      "perigee_km": 474.2793312720469,
      "latitude_deg": -9.325579639350728e-06,
      "longitude_deg": 9.94061273520704,
      "height_km": 476.27770176363,
      "semi_major_axis_km": 6853.358668088909,
      "eccentricity": 0.0001375,
      "inclination_deg": 53.1615,
      "raan_deg": 39.4717,
      "arg_perigee_deg": 99.6472,
      "mean_anomaly_deg": 260.4684,
      "mean_motion_rev_day": 15.3019779
    },
    {
      "epoch": "2026-04-04T03:17:04.754112Z",
      "apogee_km": 476.1960428226712,
      "perigee_km": 474.27449430601064,
      "latitude_deg": -7.190074343054147e-06,
      "longitude_deg": 155.00934389240425,
      "height_km": 476.29684801015634,
      "semi_major_axis_km": 6853.372268564341,
      "eccentricity": 0.00014019,
      "inclination_deg": 53.1619,
      "raan_deg": 36.7403,
      "arg_perigee_deg": 99.7955,
      "mean_anomaly_deg": 260.3204,
      "mean_motion_rev_day": 15.30193235
    },
    {
      "epoch": "2026-04-05T12:12:09.877824Z",
      "apogee_km": 475.563477599404,
      "perigee_km": 474.74574284447226,
      "latitude_deg": 6.873621997879639e-06,
      "longitude_deg": 13.514005923338416,
      "height_km": 475.9132820223868,
      "semi_major_axis_km": 6853.291610221938,
      "eccentricity": 5.966e-05,
      "inclination_deg": 53.1615,
      "raan_deg": 30.3682,
      "arg_perigee_deg": 69.8998,
      "mean_anomaly_deg": 290.2067,
      "mean_motion_rev_day": 15.30220249
    },
    {
      "epoch": "2026-04-05T20:02:26.827008Z",
      "apogee_km": 476.7809558396175,
      "perigee_km": 473.6489739916515,
      "latitude_deg": 9.3020379757039e-06,
      "longitude_deg": -105.88991137656446,
      "height_km": 476.5370316851628,
      "semi_major_axis_km": 6853.351964915634,
      "eccentricity": 0.0002285,
      "inclination_deg": 53.1627,
      "raan_deg": 28.8568,
      "arg_perigee_deg": 105.7489,
      "mean_anomaly_deg": 254.3764,
      "mean_motion_rev_day": 15.30200035
    },
    {
      "epoch": "2026-04-06T05:26:46.179168Z",
      "apogee_km": 476.1451041884184,
      "perigee_km": 474.3989926310642,
      "latitude_deg": 6.669427274877766e-05,
      "longitude_deg": 110.8181314721105,
      "height_km": 476.0095660087058,
      "semi_major_axis_km": 6853.4090484097405,
      "eccentricity": 0.00012739,
      "inclination_deg": 53.1614,
      "raan_deg": 27.0317,
      "arg_perigee_deg": 79.3921,
      "mean_anomaly_deg": 280.7224,
      "mean_motion_rev_day": 15.30180917
    },
    {
      "epoch": "2026-04-07T01:49:28.009632Z",
      "apogee_km": 476.0422048744931,
      "perigee_km": 474.375471166687,
      "latitude_deg": -6.880880580054173e-05,
      "longitude_deg": 160.3631283035351,
      "height_km": 475.882264748108,
      "semi_major_axis_km": 6853.34583802059,
      "eccentricity": 0.0001216,
      "inclination_deg": 53.1617,
      "raan_deg": 23.088,
      "arg_perigee_deg": 74.3377,
      "mean_anomaly_deg": 285.7757,
      "mean_motion_rev_day": 15.30202087
    },
    {
      "epoch": "2026-04-08T04:28:21.987840Z",
      "apogee_km": 476.0496151364423,
      "perigee_km": 474.34025708493846,
      "latitude_deg": -5.553643271231036e-06,
      "longitude_deg": 114.38815503030094,
      "height_km": 475.9677600819109,
      "semi_major_axis_km": 6853.331936110691,
      "eccentricity": 0.00012471,
      "inclination_deg": 53.1615,
      "raan_deg": 17.9323,
      "arg_perigee_deg": 81.5584,
      "mean_anomaly_deg": 278.5558,
      "mean_motion_rev_day": 15.30206743
    },
    {
      "epoch": "2026-04-09T11:48:55.958976Z",
      "apogee_km": 474.2959149272301,
      "perigee_km": 472.7642932627805,
      "latitude_deg": -6.168710657241685e-06,
      "longitude_deg": -3.1084975875782885,
      "height_km": 474.18036499320726,
      "semi_major_axis_km": 6851.667104095005,
      "eccentricity": 0.00011177,
      "inclination_deg": 53.1624,
      "raan_deg": 11.8644,
      "arg_perigee_deg": 71.0583,
      "mean_anomaly_deg": 289.0539,
      "mean_motion_rev_day": 15.30764496
    },
    {
      "epoch": "2026-04-10T12:00:02.000160Z",
      "apogee_km": 471.56778572849635,
      "perigee_km": 469.98157778300083,
      "latitude_deg": 16.670199789464103,
      "longitude_deg": 155.53919724950586,
      "height_km": 470.8659497547044,
      "semi_major_axis_km": 6848.911681755748,
      "eccentricity": 0.0001158,
      "inclination_deg": 53.1606,
      "raan_deg": 7.1714,
      "arg_perigee_deg": 80.8004,
      "mean_anomaly_deg": 78.2122,
      "mean_motion_rev_day": 15.31688364
    },
    {
      "epoch": "2026-04-11T20:00:01.000224Z",
      "apogee_km": 471.61941203349943,
      "perigee_km": 469.820902144048,
      "latitude_deg": -34.550140114174454,
      "longitude_deg": -169.95153228573227,
      "height_km": 482.30828420570583,
      "semi_major_axis_km": 6848.857157088773,
      "eccentricity": 0.0001313,
      "inclination_deg": 53.1603,
      "raan_deg": 0.9644,
      "arg_perigee_deg": 91.1011,
      "mean_anomaly_deg": 224.0899,
      "mean_motion_rev_day": 15.31706655
    },
    {
      "epoch": "2026-04-13T06:00:02.000160Z",
      "apogee_km": 471.5920026276426,
      "perigee_km": 469.85485766813963,
      "latitude_deg": -24.762773947825064,
      "longitude_deg": -96.98239755136086,
      "height_km": 478.4646134183514,
      "semi_major_axis_km": 6848.860430147891,
      "eccentricity": 0.00012682,
      "inclination_deg": 53.1597,
      "raan_deg": 354.3685,
      "arg_perigee_deg": 81.6693,
      "mean_anomaly_deg": 129.6171,
      "mean_motion_rev_day": 15.31705557
    }
  ]
}